[{"OBJECT_NAME":"STARLINK-31494","OBJECT_ID":"2024-049H","EPOCH":"2026-03-09T06:19:24.739392","MEAN_MOTION":15.27577403,"ECCENTRICITY":0.00011798,"INCLINATION":43.0015,"RA_OF_ASC_NODE":145.7093,"ARG_OF_PERICENTER":241.1794,"MEAN_ANOMALY":118.8939,"EPHEMERIS_TYPE":0,"CLASSIFICATION_TYPE":"U","NORAD_CAT_ID":59238,"ELEMENT_SET_NO":999,"REV_AT_EPOCH":11234,"BSTAR":-7.2634391e-5,"MEAN_MOTION_DOT":-2.26e-5,"MEAN_MOTION_DDOT":0},{"OBJECT_NAME":"KUIPER-00208","OBJECT_ID":"2026-030M","EPOCH":"2026-03-09T16:08:08.024640","MEAN_MOTION":15.32208734,"ECCENTRICITY":0.00155248,"INCLINATION":51.8846,"RA_OF_ASC_NODE":219.6993,"ARG_OF_PERICENTER":57.3146,"MEAN_ANOMALY":302.9333,"EPHEMERIS_TYPE":0,"CLASSIFICATION_TYPE":"U","NORAD_CAT_ID":67775,"ELEMENT_SET_NO":999,"REV_AT_EPOCH":508,"BSTAR":0.0013882708,"MEAN_MOTION_DOT":0.00043852,"MEAN_MOTION_DDOT":0}]
